SatCatId,ObjectName,LaunchYear,OrbitalPeriod,LaunchMass,StatusCode,Inclination,Status,UcsData,OrbitClassEstimated,LaunchSiteCountry,Owner,UseType,Purpose,LaunchVehicleClass,TLE1,TLE2,MeanMotion,Eccentricity,OrbitClass
49451,STARLINK-3125,2021,95.44,260.0,+,53.22,Active,1,LEO,USA,USA,Commercial,Communications,Falcon,1 49451U 21104AV  25170.44168239  .00000066  00000+0  22265-4 0  9995,2 49451  53.2181 320.8857 0001360  93.8355 266.2793 15.08836926199036,15.08836926,0.000136,LEO
49452,STARLINK-3150,2021,95.44,260.0,+,53.22,Active,1,LEO,USA,USA,Commercial,Communications,Falcon,1 49452U 21104AW  25170.69656463 -.00001095  00000+0 -50719-4 0  9994,2 49452  53.2192 319.7823 0001481  95.7929 264.3232 15.08838767200159,15.08838767,0.0001481,LEO
49453,STARLINK-3129,2021,95.44,260.0,+,53.22,Active,1,LEO,USA,USA,Commercial,Communications,Falcon,1 49453U 21104AX  25170.44264969  .00000155  00000+0  27814-4 0  9998,2 49453  53.2173 320.9680 0001262  91.2332 268.8805 15.08835388199035,15.08835388,0.0001262,LEO
49454,STARLINK-3160,2021,95.44,260.0,+,53.22,Active,1,LEO,USA,USA,Commercial,Communications,Falcon,1 49454U 21104AY  25170.70297196 -.00000853  00000+0 -35522-4 0  9998,2 49454  53.2180 319.7143 0001392  92.3599 267.7552 15.08828989200157,15.08828989,0.0001392,LEO
49455,STARLINK-3145,2021,95.44,260.0,+,53.22,Active,1,LEO,USA,USA,Commercial,Communications,Falcon,1 49455U 21104AZ  25170.42328361  .00000529  00000+0  51325-4 0  9994,2 49455  53.2183 320.9694 0001258  89.7897 270.3239 15.08838292199032,15.08838292,0.0001258,LEO
49456,STARLINK-3124,2021,95.44,260.0,+,53.22,Active,1,LEO,USA,USA,Commercial,Communications,Falcon,1 49456U 21104BA  25170.70024673  .00000054  00000+0  21452-4 0  9996,2 49456  53.2179 319.7743 0001333  92.4046 267.7099 15.08836852200149,15.08836852,0.0001333,LEO
49457,STARLINK-3132,2021,95.44,260.0,+,53.22,Active,1,LEO,USA,USA,Commercial,Communications,Falcon,1 49457U 21104BB  25170.68552259 -.00000164  00000+0  78004-5 0  9999,2 49457  53.2185 319.8032 0001268  90.0015 270.1123 15.08835964200145,15.08835964,0.0001268,LEO
49458,STARLINK-3156,2021,95.44,260.0,+,53.22,Active,1,LEO,USA,USA,Commercial,Communications,Falcon,1 49458U 21104BC  25170.42696231  .00001503  00000+0  11255-3 0  9991,2 49458  53.2186 320.9534 0001546  87.2942 272.8227 15.08826185199037,15.08826185,0.0001546,LEO
49459,STARLINK-3141,2021,95.44,260.0,+,53.22,Active,1,LEO,USA,USA,Commercial,Communications,Falcon,1 49459U 21104BD  25170.68087831  .00000822  00000+0  69730-4 0  9995,2 49459  53.2180 319.8150 0001383  88.6100 271.5050 15.08843003200146,15.08843003,0.0001383,LEO
49460,STARLINK-3140,2021,95.44,260.0,+,53.22,Active,1,LEO,USA,USA,Commercial,Communications,Falcon,1 49460U 21104BE  25170.41224730  .00000973  00000+0  79198-4 0  9995,2 49460  53.2173 321.0197 0001180  86.9398 273.1729 15.08847576199025,15.08847576,0.000118,LEO
49469,GLOBAL-14,2021,93.81,55.0,+,42.01,Active,1,LEO,New Zealand,USA,Commercial,Earth Observation,Electron,1 49469U 21106A   25170.28165502  .00011437  00000+0  33577-3 0  9999,2 49469  42.0070 258.7460 0005138  23.0848 337.0221 15.35059935202110,15.35059935,0.0005138,LEO
49492,GAOFEN-11 03,2021,94.51,3000.0,+,97.26,Active,1,LEO,PRC,China,Government,Earth Observation,Long March,1 49492U 21107A   25170.85871904  .00004611  00000+0  19463-3 0  9993,2 49492  97.2617 222.7941 0008466 243.5734 116.4635 15.23724562199463,15.23724562,0.0008466,LEO
49495,GAOFEN-3 02,2021,99.85,2500.0,+,98.41,Active,1,LEO,PRC,China,Government,Earth Observation,Long March,1 49495U 21109A   25170.82611130  .00000021  00000+0  19588-4 0  9998,2 49495  98.4105 179.0162 0002782  26.9613 333.1720 14.42217538188083,14.42217538,0.0002782,LEO
49501,SHIYAN-11 (SY-11),2021,90.81,200.0,+,97.36,Active,1,LEO,PRC,China,Government,Technology Development,Kuaizhou,1 49501U 21112A   25170.85567059  .00127178  00000+0  51765-3 0  9998,2 49501  97.3592 211.9534 0004013 213.1899 146.9120 15.85837853200190,15.85837853,0.0004013,LEO
49503,COSMOS 2552,2021,717.91,2000.0,+,62.93,Active,1,MEO,Russia,Russia/USSR,Military,Earth Observation,Soyuz,1 49503U 21113A   25170.53239202 -.00000319  00000+0  00000+0 0  9992,2 49503  62.9285 241.6942 6600759 272.4465  19.3917  2.00580895 26124,2.00580895,0.6600759,MEO
49505,ZHONGXING-1D,2021,1436.13,2500.0,+,0.04,Active,1,GSO,PRC,China,Commercial,Communications,Long March,1 49505U 21114A   25170.52893069 -.00000325  00000+0  00000+0 0  9998,2 49505   0.0448 185.3043 0001988  37.4627   5.7866  1.00269190 13194,1.0026919,0.0001988,GEO
49724,STARLINK-3219,2021,95.44,260.0,+,53.22,Active,1,LEO,USA,USA,Commercial,Communications,Falcon,1 49724U 21115A   25170.48125828  .00001483  00000+0  11121-3 0  9993,2 49724  53.2170 250.9311 0001138  82.4564 277.6557 15.08850162195795,15.08850162,0.0001138,LEO
49725,STARLINK-3218,2021,95.44,260.0,+,53.22,Active,1,LEO,USA,USA,Commercial,Communications,Falcon,1 49725U 21115B   25170.23837716  .00001287  00000+0  98986-4 0  9990,2 49725  53.2194 251.9040 0001545 105.9321 254.1841 15.08828355195768,15.08828355,0.0001545,LEO
49727,STARLINK-3242,2021,95.44,260.0,+,53.22,Active,1,LEO,USA,USA,Commercial,Communications,Falcon,1 49727U 21115D   25170.25952363 -.00001266  00000+0 -61426-4 0  9998,2 49727  53.2164 261.7049 0001292  90.1445 269.9696 15.08849799195628,15.08849799,0.0001292,LEO
49728,STARLINK-3240,2021,95.44,260.0,+,53.22,Active,1,LEO,USA,USA,Commercial,Communications,Falcon,1 49728U 21115E   25170.52815800 -.00000241  00000+0  29784-5 0  9996,2 49728  53.2173 260.4977 0001363  90.1952 269.9197 15.08839798195665,15.08839798,0.0001363,LEO
49729,STARLINK-3251,2021,95.44,260.0,+,53.22,Active,1,LEO,USA,USA,Commercial,Communications,Falcon,1 49729U 21115F   25170.52078775  .00000154  00000+0  27766-4 0  9998,2 49729  53.2166 260.4165 0001051  86.1224 273.9888 15.08838156195667,15.08838156,0.0001051,LEO
49730,STARLINK-3249,2021,95.44,260.0,+,53.22,Active,1,LEO,USA,USA,Commercial,Communications,Falcon,1 49730U 21115G   25170.29266711 -.00000002  00000+0  17953-4 0  9993,2 49730  53.2174 261.7497 0001189  90.1483 269.9645 15.08837136195623,15.08837136,0.0001189,LEO
49732,STARLINK-3246,2021,95.44,260.0,+,53.22,Active,1,LEO,USA,USA,Commercial,Communications,Falcon,1 49732U 21115J   25169.96882250 -.00000067  00000+0  13867-4 0  9990,2 49732  53.2184 263.1681 0001442  95.4782 264.6374 15.08837113195579,15.08837113,0.0001442,LEO
49733,STARLINK-3252,2021,95.44,260.0,+,53.22,Active,1,LEO,USA,USA,Commercial,Communications,Falcon,1 49733U 21115K   25169.54929528 -.00001247  00000+0 -60264-4 0  9990,2 49733  53.2177 264.8922 0001277  94.5814 265.5324 15.08839746195513,15.08839746,0.0001277,LEO
49734,STARLINK-3238,2021,95.44,260.0,+,53.22,Active,1,LEO,USA,USA,Commercial,Communications,Falcon,1 49734U 21115L   25170.49597243  .00007091  00000+0  46323-3 0  9992,2 49734  53.2171 250.6672 0001248  87.0281 273.0854 15.08833053195805,15.08833053,0.0001248,LEO
49735,STARLINK-3113,2021,95.44,260.0,+,53.22,Active,1,LEO,USA,USA,Commercial,Communications,Falcon,1 49735U 21115M   25170.53551129 -.00000061  00000+0  14225-4 0  9999,2 49735  53.2181 260.3501 0001179  93.9671 266.1456 15.08835199195666,15.08835199,0.0001179,LEO
49736,STARLINK-3148,2021,95.44,260.0,+,53.22,Active,1,LEO,USA,USA,Commercial,Communications,Falcon,1 49736U 21115N   25170.49226446  .00000251  00000+0  33833-4 0  9992,2 49736  53.2163 250.5439 0001329  86.6467 273.4677 15.08840541195806,15.08840541,0.0001329,LEO
49737,STARLINK-3225,2021,95.44,260.0,+,53.22,Active,1,LEO,USA,USA,Commercial,Communications,Falcon,1 49737U 21115P   25170.49964691 -.00001237  00000+0 -59638-4 0  9992,2 49737  53.2182 250.6270 0001431  84.7755 275.3401 15.08832370195802,15.0883237,0.0001431,LEO
49738,STARLINK-3143,2021,95.44,260.0,+,53.22,Active,1,LEO,USA,USA,Commercial,Communications,Falcon,1 49738U 21115Q   25170.19518761 -.00000392  00000+0 -65417-5 0  9997,2 49738  53.2165 252.2018 0001251  90.6641 269.4494 15.08844264195757,15.08844264,0.0001251,LEO
49739,STARLINK-3155,2021,95.44,260.0,+,53.22,Active,1,LEO,USA,USA,Commercial,Communications,Falcon,1 49739U 21115R   25170.55392520  .00000383  00000+0  42116-4 0  9999,2 49739  53.2173 260.3846 0000955  90.1327 269.9774 15.08837289195667,15.08837289,9.55e-05,LEO
49740,STARLINK-3226,2021,95.44,260.0,+,53.22,Active,1,LEO,USA,USA,Commercial,Communications,Falcon,1 49740U 21115S   25170.51532202  .00000257  00000+0  34193-4 0  9996,2 49740  53.2181 250.5296 0000860  99.0648 261.0441 15.08840614195803,15.08840614,8.6e-05,LEO
49741,STARLINK-3244,2021,95.44,260.0,+,53.22,Active,1,LEO,USA,USA,Commercial,Communications,Falcon,1 49741U 21115T   25170.51163647  .00000009  00000+0  18682-4 0  9990,2 49741  53.2166 250.5812 0001223  89.3931 270.7201 15.08840999195809,15.08840999,0.0001223,LEO
49742,STARLINK-3202,2021,95.43,260.0,+,53.22,Active,1,LEO,USA,USA,Commercial,Communications,Falcon,1 49742U 21115U   25170.19420559  .00000066  00000+0  22261-4 0  9994,2 49742  53.2169 251.9982 0001163  83.5257 276.5868 15.08833262195758,15.08833262,0.0001163,LEO
49743,STARLINK-3239,2021,95.44,260.0,+,53.22,Active,1,LEO,USA,USA,Commercial,Communications,Falcon,1 49743U 21115V   25170.50795163 -.00000008  00000+0  17560-4 0  9999,2 49743  53.2166 250.5203 0001172  88.5144 271.5982 15.08835460195807,15.0883546,0.0001172,LEO
49744,STARLINK-3231,2021,95.44,260.0,+,53.22,Active,1,LEO,USA,USA,Commercial,Communications,Falcon,1 49744U 21115W   25169.52906986 -.00001262  00000+0 -61249-4 0  9994,2 49744  53.2162 254.8803 0001454  91.8521 268.2638 15.08835644195654,15.08835644,0.0001454,LEO
49745,STARLINK-3241,2021,95.44,260.0,+,53.22,Active,1,LEO,USA,USA,Commercial,Communications,Falcon,1 49745U 21115X   25170.51899579 -.00000082  00000+0  12929-4 0  9994,2 49745  53.2175 250.5134 0001101  83.9542 276.1575 15.08837859195808,15.08837859,0.0001101,LEO
